[{"OBJECT_NAME":"KUIPER-00135","OBJECT_ID":"2025-228Q","EPOCH":"2026-03-09T22:37:04.119456","MEAN_MOTION":14.79918381,"ECCENTRICITY":7.784e-5,"INCLINATION":51.9042,"RA_OF_ASC_NODE":349.5544,"ARG_OF_PERICENTER":95.0857,"MEAN_ANOMALY":265.0194,"EPHEMERIS_TYPE":0,"CLASSIFICATION_TYPE":"U","NORAD_CAT_ID":65961,"ELEMENT_SET_NO":999,"REV_AT_EPOCH":2340,"BSTAR":-0.0013645171,"MEAN_MOTION_DOT":-0.00010603,"MEAN_MOTION_DDOT":0},{"OBJECT_NAME":"CZ-4B DEB","OBJECT_ID":"1999-057NJ","EPOCH":"2026-03-07T09:07:04.154880","MEAN_MOTION":14.74959066,"ECCENTRICITY":0.00453266,"INCLINATION":98.3503,"RA_OF_ASC_NODE":118.5802,"ARG_OF_PERICENTER":298.5902,"MEAN_ANOMALY":123.3003,"EPHEMERIS_TYPE":0,"CLASSIFICATION_TYPE":"U","NORAD_CAT_ID":29039,"ELEMENT_SET_NO":999,"REV_AT_EPOCH":23249,"BSTAR":0.00098320995,"MEAN_MOTION_DOT":6.665e-5,"MEAN_MOTION_DDOT":0}]
